{
    "links": {
        "self": "http://www.neowsapp.com/rest/v1/neo/3836914?api_key=iIulBulltgU6a56xZRHN4H3l9WmuAYTsLGpBGhQ2"
    },
    "id": "3836914",
    "neo_reference_id": "3836914",
    "name": "(2018 XB5)",
    "designation": "2018 XB5",
    "nasa_jpl_url": "http://ssd.jpl.nasa.gov/sbdb.cgi?sstr=3836914",
    "absolute_magnitude_h": 24.2,
    "estimated_diameter": {
        "kilometers": {
            "estimated_diameter_min": 0.0384197891,
            "estimated_diameter_max": 0.0859092601
        },
        "meters": {
            "estimated_diameter_min": 38.4197891064,
            "estimated_diameter_max": 85.9092601232
        },
        "miles": {
            "estimated_diameter_min": 0.0238729428,
            "estimated_diameter_max": 0.0533815229
        },
        "feet": {
            "estimated_diameter_min": 126.0491808919,
            "estimated_diameter_max": 281.8545369825
        }
    },
    "is_potentially_hazardous_asteroid": false,
    "close_approach_data": [
        {
            "close_approach_date": "2013-12-01",
            "close_approach_date_full": "2013-Dec-01 20:18",
            "epoch_date_close_approach": 1385929080000,
            "relative_velocity": {
                "kilometers_per_second": "14.8919965558",
                "kilometers_per_hour": "53611.187600768",
                "miles_per_hour": "33311.9070955995"
            },
            "miss_distance": {
                "astronomical": "0.2274587735",
                "lunar": "88.4814628915",
                "kilometers": "34027348.028412445",
                "miles": "21143613.622463941"
            },
            "orbiting_body": "Earth"
        },
        {
            "close_approach_date": "2018-12-14",
            "close_approach_date_full": "2018-Dec-14 20:09",
            "epoch_date_close_approach": 1544818140000,
            "relative_velocity": {
                "kilometers_per_second": "15.2198463159",
                "kilometers_per_hour": "54791.4467372371",
                "miles_per_hour": "34045.2742240349"
            },
            "miss_distance": {
                "astronomical": "0.0178002504",
                "lunar": "6.9242974056",
                "kilometers": "2662879.545306648",
                "miles": "1654636.6229338224"
            },
            "orbiting_body": "Earth"
        },
        {
            "close_approach_date": "2023-12-26",
            "close_approach_date_full": "2023-Dec-26 18:48",
            "epoch_date_close_approach": 1703616480000,
            "relative_velocity": {
                "kilometers_per_second": "18.3004322938",
                "kilometers_per_hour": "65881.5562575835",
                "miles_per_hour": "40936.2369979413"
            },
            "miss_distance": {
                "astronomical": "0.2314021773",
                "lunar": "90.0154469697",
                "kilometers": "34617272.837442351",
                "miles": "21510175.9010764038"
            },
            "orbiting_body": "Earth"
        },
        {
            "close_approach_date": "2029-01-06",
            "close_approach_date_full": "2029-Jan-06 10:02",
            "epoch_date_close_approach": 1862388120000,
            "relative_velocity": {
                "kilometers_per_second": "23.143295067",
                "kilometers_per_hour": "83315.8622410387",
                "miles_per_hour": "51769.2367352721"
            },
            "miss_distance": {
                "astronomical": "0.4648024377",
                "lunar": "180.8081482653",
                "kilometers": "69533454.650727699",
                "miles": "43206085.2271682862"
            },
            "orbiting_body": "Earth"
        }
    ],
    "orbital_data": {
        "orbit_id": "6",
        "orbit_determination_date": "2018-12-28 06:54:42",
        "first_observation_date": "2018-12-14",
        "last_observation_date": "2018-12-28",
        "data_arc_in_days": 14,
        "observations_used": 83,
        "orbit_uncertainty": "7",
        "minimum_orbit_intersection": ".0184232",
        "jupiter_tisserand_invariant": "4.575",
        "epoch_osculation": "2459000.5",
        "eccentricity": ".3103650705323633",
        "semi_major_axis": "1.412408259823528",
        "inclination": "25.88137889964066",
        "ascending_node_longitude": "263.0879299388373",
        "orbital_period": "613.1105650115425",
        "perihelion_distance": ".9740460706429065",
        "perihelion_argument": "151.3950243040658",
        "aphelion_distance": "1.85077044900415",
        "perihelion_time": "2459056.220556757950",
        "mean_anomaly": "327.2825725446691",
        "mean_motion": ".5871697872197368",
        "equinox": "J2000",
        "orbit_class": {
            "orbit_class_type": "APO",
            "orbit_class_description": "Near-Earth asteroid orbits which cross the Earth’s orbit similar to that of 1862 Apollo",
            "orbit_class_range": "a (semi-major axis) > 1.0 AU; q (perihelion) < 1.017 AU"
        }
    },
    "is_sentry_object": false
}